{
  "type": "FeatureCollection",
  "features": [
    {
      "type": "Feature",
      "properties": {
        "norad_id": 31622,
        "name": "FENGYUN 1C DEB",
        "group": "fengyun-1c-debris",
        "lat": -66.23667184578633,
        "lon": 92.93722616229617,
        "alt_km": 773.6374404101534,
        "timestamp": "2025-12-03T17:47:51.000722+00:00",
        "meta_object_name": "FENGYUN 1C DEB",
        "meta_object_id": "1999-025CAC",
        "meta_epoch": "2025-12-03T05:04:08.263200",
        "meta_mean_motion": 14.37001244,
        "meta_eccentricity": 0.0015007,
        "meta_inclination": 98.8177,
        "meta_ra_of_asc_node": 71.7505,
        "meta_arg_of_pericenter": 13.3002,
        "meta_mean_anomaly": 56.9899,
        "meta_ephemeris_type": 0,
        "meta_classification_type": "U",
        "meta_norad_cat_id": 31622,
        "meta_element_set_no": 999,
        "meta_rev_at_epoch": 95635,
        "meta_bstar": 0.0027163,
        "meta_mean_motion_dot": 8.025e-05,
        "meta_mean_motion_ddot": 0,
        "tle_line1": "1 31622U 99025CAC 25337.21120675  .00008025  00000+0  27163-2 0  9998",
        "tle_line2": "2 31622  98.8177  71.7505 0015007  13.3002  56.9899 14.37001244956353"
      },
      "geometry": {
        "type": "Point",
        "coordinates": [
          92.93722616229617,
          -66.23667184578633
        ]
      }
    },
    {
      "type": "Feature",
      "properties": {
        "norad_id": 31623,
        "name": "FENGYUN 1C DEB",
        "group": "fengyun-1c-debris",
        "lat": -11.892506807704427,
        "lon": 9.400869853091734,
        "alt_km": 1093.7600202031763,
        "timestamp": "2025-12-03T17:47:51.000732+00:00",
        "meta_object_name": "FENGYUN 1C DEB",
        "meta_object_id": "1999-025CAD",
        "meta_epoch": "2025-12-02T20:02:22.350624",
        "meta_mean_motion": 13.82580933,
        "meta_eccentricity": 0.01951152,
        "meta_inclination": 97.6304,
        "meta_ra_of_asc_node": 190.283,
        "meta_arg_of_pericenter": 33.7651,
        "meta_mean_anomaly": 327.5758,
        "meta_ephemeris_type": 0,
        "meta_classification_type": "U",
        "meta_norad_cat_id": 31623,
        "meta_element_set_no": 999,
        "meta_rev_at_epoch": 57783,
        "meta_bstar": 0.00047153491,
        "meta_mean_motion_dot": 5.61e-06,
        "meta_mean_motion_ddot": 0,
        "tle_line1": "1 31623U 99025CAD 25336.83498091  .00000561  00000+0  47153-3 0  9995",
        "tle_line2": "2 31623  97.6304 190.2830 0195115  33.7651 327.5758 13.82580933577835"
      },
      "geometry": {
        "type": "Point",
        "coordinates": [
          9.400869853091734,
          -11.892506807704427
        ]
      }
    },
    {
      "type": "Feature",
      "properties": {
        "norad_id": 31625,
        "name": "FENGYUN 1C DEB",
        "group": "fengyun-1c-debris",
        "lat": 40.45505869643363,
        "lon": 55.681585701730164,
        "alt_km": 598.7964463691405,
        "timestamp": "2025-12-03T17:47:51.000741+00:00",
        "meta_object_name": "FENGYUN 1C DEB",
        "meta_object_id": "1999-025CAF",
        "meta_epoch": "2025-12-03T11:17:03.152832",
        "meta_mean_motion": 14.55374989,
        "meta_eccentricity": 0.0149847,
        "meta_inclination": 98.8069,
        "meta_ra_of_asc_node": 62.9923,
        "meta_arg_of_pericenter": 43.8947,
        "meta_mean_anomaly": 16.2225,
        "meta_ephemeris_type": 0,
        "meta_classification_type": "U",
        "meta_norad_cat_id": 31625,
        "meta_element_set_no": 999,
        "meta_rev_at_epoch": 98258,
        "meta_bstar": 0.00022186,
        "meta_mean_motion_dot": 1.061e-05,
        "meta_mean_motion_ddot": 0,
        "tle_line1": "1 31625U 99025CAF 25337.47017538  .00001061  00000+0  22186-3 0  9996",
        "tle_line2": "2 31625  98.8069  62.9923 0149847  43.8947  16.2225 14.55374989982583"
      },
      "geometry": {
        "type": "Point",
        "coordinates": [
          55.681585701730164,
          40.45505869643363
        ]
      }
    },
    {
      "type": "Feature",
      "properties": {
        "norad_id": 31627,
        "name": "FENGYUN 1C DEB",
        "group": "fengyun-1c-debris",
        "lat": -17.391699725755835,
        "lon": -156.9793156300099,
        "alt_km": 743.2023027042196,
        "timestamp": "2025-12-03T17:47:51.000751+00:00",
        "meta_object_name": "FENGYUN 1C DEB",
        "meta_object_id": "1999-025CAH",
        "meta_epoch": "2025-11-26T09:13:22.975680",
        "meta_mean_motion": 14.35408996,
        "meta_eccentricity": 0.00515931,
        "meta_inclination": 98.5313,
        "meta_ra_of_asc_node": 18.4415,
        "meta_arg_of_pericenter": 201.9005,
        "meta_mean_anomaly": 157.9975,
        "meta_ephemeris_type": 0,
        "meta_classification_type": "U",
        "meta_norad_cat_id": 31627,
        "meta_element_set_no": 999,
        "meta_rev_at_epoch": 64532,
        "meta_bstar": 0.0013473839,
        "meta_mean_motion_dot": 3.885e-05,
        "meta_mean_motion_ddot": 0,
        "tle_line1": "1 31627U 99025CAH 25330.38429370  .00003885  00000+0  13474-2 0  9997",
        "tle_line2": "2 31627  98.5313  18.4415 0051593 201.9005 157.9975 14.35408996645325"
      },
      "geometry": {
        "type": "Point",
        "coordinates": [
          -156.9793156300099,
          -17.391699725755835
        ]
      }
    },
    {
      "type": "Feature",
      "properties": {
        "norad_id": 31628,
        "name": "FENGYUN 1C DEB",
        "group": "fengyun-1c-debris",
        "lat": -62.47628615699453,
        "lon": -145.51796900269792,
        "alt_km": 871.2060649613677,
        "timestamp": "2025-12-03T17:47:51.000761+00:00",
        "meta_object_name": "FENGYUN 1C DEB",
        "meta_object_id": "1999-025CAJ",
        "meta_epoch": "2025-12-03T07:43:17.066784",
        "meta_mean_motion": 13.86751331,
        "meta_eccentricity": 0.0170008,
        "meta_inclination": 102.2701,
        "meta_ra_of_asc_node": 189.2481,
        "meta_arg_of_pericenter": 242.6512,
        "meta_mean_anomaly": 115.724,
        "meta_ephemeris_type": 0,
        "meta_classification_type": "U",
        "meta_norad_cat_id": 31628,
        "meta_element_set_no": 999,
        "meta_rev_at_epoch": 93169,
        "meta_bstar": 0.0029965,
        "meta_mean_motion_dot": 3.846e-05,
        "meta_mean_motion_ddot": 0,
        "tle_line1": "1 31628U 99025CAJ 25337.32172531  .00003846  00000+0  29965-2 0  9992",
        "tle_line2": "2 31628 102.2701 189.2481 0170008 242.6512 115.7240 13.86751331931692"
      },
      "geometry": {
        "type": "Point",
        "coordinates": [
          -145.51796900269792,
          -62.47628615699453
        ]
      }
    },
    {
      "type": "Feature",
      "properties": {
        "norad_id": 31629,
        "name": "FENGYUN 1C DEB",
        "group": "fengyun-1c-debris",
        "lat": 4.040358534408042,
        "lon": 19.609471898799637,
        "alt_km": 793.7302110371311,
        "timestamp": "2025-12-03T17:47:51.000771+00:00",
        "meta_object_name": "FENGYUN 1C DEB",
        "meta_object_id": "1999-025CAK",
        "meta_epoch": "2025-12-01T08:03:40.160736",
        "meta_mean_motion": 14.14467327,
        "meta_eccentricity": 0.01042289,
        "meta_inclination": 102.1346,
        "meta_ra_of_asc_node": 17.2227,
        "meta_arg_of_pericenter": 56.4579,
        "meta_mean_anomaly": 304.6484,
        "meta_ephemeris_type": 0,
        "meta_classification_type": "U",
        "meta_norad_cat_id": 31629,
        "meta_element_set_no": 999,
        "meta_rev_at_epoch": 94285,
        "meta_bstar": 0.0028263297,
        "meta_mean_motion_dot": 5.641e-05,
        "meta_mean_motion_ddot": 0,
        "tle_line1": "1 31629U 99025CAK 25335.33588149  .00005641  00000+0  28263-2 0  9993",
        "tle_line2": "2 31629 102.1346  17.2227 0104228  56.4579 304.6484 14.14467327942850"
      },
      "geometry": {
        "type": "Point",
        "coordinates": [
          19.609471898799637,
          4.040358534408042
        ]
      }
    },
    {
      "type": "Feature",
      "properties": {
        "norad_id": 31630,
        "name": "FENGYUN 1C DEB",
        "group": "fengyun-1c-debris",
        "lat": -73.77166245535587,
        "lon": -64.43495944423783,
        "alt_km": 631.1806727033845,
        "timestamp": "2025-12-03T17:47:51.000781+00:00",
        "meta_object_name": "FENGYUN 1C DEB",
        "meta_object_id": "1999-025CAL",
        "meta_epoch": "2025-11-28T17:02:46.410432",
        "meta_mean_motion": 15.05651013,
        "meta_eccentricity": 0.0167781,
        "meta_inclination": 98.0901,
        "meta_ra_of_asc_node": 139.5424,
        "meta_arg_of_pericenter": 43.6541,
        "meta_mean_anomaly": 317.7815,
        "meta_ephemeris_type": 0,
        "meta_classification_type": "U",
        "meta_norad_cat_id": 31630,
        "meta_element_set_no": 999,
        "meta_rev_at_epoch": 98379,
        "meta_bstar": 0.00077583997,
        "meta_mean_motion_dot": 0.00015356,
        "meta_mean_motion_ddot": 0,
        "tle_line1": "1 31630U 99025CAL 25332.71025938  .00015356  00000+0  77584-3 0  9991",
        "tle_line2": "2 31630  98.0901 139.5424 0167781  43.6541 317.7815 15.05651013983798"
      },
      "geometry": {
        "type": "Point",
        "coordinates": [
          -64.43495944423783,
          -73.77166245535587
        ]
      }
    }
  ]
}